{
    "links": {
        "self": "http://www.neowsapp.com/rest/v1/neo/54087783?api_key=iIulBulltgU6a56xZRHN4H3l9WmuAYTsLGpBGhQ2"
    },
    "id": "54087783",
    "neo_reference_id": "54087783",
    "name": "(2020 VG4)",
    "designation": "2020 VG4",
    "nasa_jpl_url": "http://ssd.jpl.nasa.gov/sbdb.cgi?sstr=54087783",
    "absolute_magnitude_h": 28.502,
    "estimated_diameter": {
        "kilometers": {
            "estimated_diameter_min": 0.0052985249,
            "estimated_diameter_max": 0.0118478618
        },
        "meters": {
            "estimated_diameter_min": 5.2985248634,
            "estimated_diameter_max": 11.847861775
        },
        "miles": {
            "estimated_diameter_min": 0.0032923497,
            "estimated_diameter_max": 0.0073619177
        },
        "feet": {
            "estimated_diameter_min": 17.3836123127,
            "estimated_diameter_max": 38.8709388258
        }
    },
    "is_potentially_hazardous_asteroid": false,
    "close_approach_data": [
        {
            "close_approach_date": "2020-11-17",
            "close_approach_date_full": "2020-Nov-17 05:12",
            "epoch_date_close_approach": 1605589920000,
            "relative_velocity": {
                "kilometers_per_second": "7.9662097817",
                "kilometers_per_hour": "28678.3552141873",
                "miles_per_hour": "17819.6146607265"
            },
            "miss_distance": {
                "astronomical": "0.0053107344",
                "lunar": "2.0658756816",
                "kilometers": "794474.554375728",
                "miles": "493663.5966039264"
            },
            "orbiting_body": "Earth"
        },
        {
            "close_approach_date": "2020-11-17",
            "close_approach_date_full": "2020-Nov-17 08:59",
            "epoch_date_close_approach": 1605603540000,
            "relative_velocity": {
                "kilometers_per_second": "8.8010324506",
                "kilometers_per_hour": "31683.7168221431",
                "miles_per_hour": "19687.0294887366"
            },
            "miss_distance": {
                "astronomical": "0.0072198415",
                "lunar": "2.8085183435",
                "kilometers": "1080072.910137605",
                "miles": "671126.185824749"
            },
            "orbiting_body": "Moon"
        },
        {
            "close_approach_date": "2023-02-20",
            "close_approach_date_full": "2023-Feb-20 14:11",
            "epoch_date_close_approach": 1676902260000,
            "relative_velocity": {
                "kilometers_per_second": "20.5987571668",
                "kilometers_per_hour": "74155.5258004012",
                "miles_per_hour": "46077.3599063659"
            },
            "miss_distance": {
                "astronomical": "0.4597247856",
                "lunar": "178.8329415984",
                "kilometers": "68773848.711966672",
                "miles": "42734087.9836251936"
            },
            "orbiting_body": "Earth"
        }
    ],
    "orbital_data": {
        "orbit_id": "7",
        "orbit_determination_date": "2020-11-24 05:23:39",
        "first_observation_date": "2020-11-12",
        "last_observation_date": "2020-11-17",
        "data_arc_in_days": 5,
        "observations_used": 36,
        "orbit_uncertainty": "7",
        "minimum_orbit_intersection": ".00564932",
        "jupiter_tisserand_invariant": "4.176",
        "epoch_osculation": "2459000.5",
        "eccentricity": ".4199305213561264",
        "semi_major_axis": "1.645558300107579",
        "inclination": "6.825722300098509",
        "ascending_node_longitude": "233.3753926017853",
        "orbital_period": "771.0247816308836",
        "perihelion_distance": ".9545381452215024",
        "perihelion_argument": "211.277878362631",
        "aphelion_distance": "2.336578454993656",
        "perihelion_time": "2459194.818482670869",
        "mean_anomaly": "269.2705507940436",
        "mean_motion": ".4669110624933772",
        "equinox": "J2000",
        "orbit_class": {
            "orbit_class_type": "APO",
            "orbit_class_description": "Near-Earth asteroid orbits which cross the Earth’s orbit similar to that of 1862 Apollo",
            "orbit_class_range": "a (semi-major axis) > 1.0 AU; q (perihelion) < 1.017 AU"
        }
    },
    "is_sentry_object": false
}